[{"OBJECT_NAME":"STARLINK-6249","OBJECT_ID":"2023-065AQ","EPOCH":"2026-03-09T22:00:01.999584","MEAN_MOTION":15.13259741,"ECCENTRICITY":0.00026279,"INCLINATION":43.0007,"RA_OF_ASC_NODE":221.7072,"ARG_OF_PERICENTER":261.9718,"MEAN_ANOMALY":105.155,"EPHEMERIS_TYPE":0,"CLASSIFICATION_TYPE":"U","NORAD_CAT_ID":56541,"ELEMENT_SET_NO":999,"REV_AT_EPOCH":572,"BSTAR":0.0064157351,"MEAN_MOTION_DOT":0.0011783,"MEAN_MOTION_DDOT":0},{"OBJECT_NAME":"FENGYUN 1C DEB","OBJECT_ID":"1999-025FBT","EPOCH":"2026-03-07T08:06:46.128096","MEAN_MOTION":15.13951464,"ECCENTRICITY":0.0011424,"INCLINATION":98.245,"RA_OF_ASC_NODE":104.3614,"ARG_OF_PERICENTER":257.8823,"MEAN_ANOMALY":163.5702,"EPHEMERIS_TYPE":0,"CLASSIFICATION_TYPE":"U","NORAD_CAT_ID":47041,"ELEMENT_SET_NO":999,"REV_AT_EPOCH":72466,"BSTAR":0.0033934,"MEAN_MOTION_DOT":0.00062023,"MEAN_MOTION_DDOT":0}]
